ARIANE 40 R/B           
1 20443U 90005H   25324.15329710  .00000360  00000+0  12825-3 0  9990
2 20443  98.3276  22.9665 0010423 168.4059 191.7371 14.39773942877047
DELTA 2 R/B(1)          
1 20453U 90008B   25324.83232284  .00032385  00000+0  54970-3 0  9997
2 20453  35.6049 161.7699 0115926 338.2278  21.3553 15.43186245909241
COSMOS 2058             
1 20465U 90010A   25324.76201682  .00003275  00000+0  19857-3 0  9994
2 20465  82.4629 154.6526 0010189 359.1066   1.0144 15.10207619925792
SL-14 R/B               
1 20466U 90010B   25324.55380348  .00000501  00000+0  58021-4 0  9995
2 20466  82.5038   9.8831 0018479 301.8794  58.0622 14.83442453912302
SL-14 R/B               
1 20511U 90018B   25324.46671536  .00000488  00000+0  58389-4 0  9997
2 20511  82.5198 325.1853 0017974  91.5755 268.7519 14.82014635906402
HST                     
1 20580U 90037B   25324.58293903  .00007263  00000+0  25334-3 0  9996
2 20580  28.4692  63.2448 0001667   6.7380 353.3238 15.27620611756601
SL-16 R/B               
1 20625U 90046B   25324.54841832  .00000045  00000+0  47990-4 0  9996
2 20625  70.9955 167.1252 0012313 114.3317 245.9093 14.14990148832956
COSMOS 2084             
1 20663U 90055A   25324.50763355  .00002486  00000+0  18720-3 0  9996
2 20663  62.7912 347.7351 0035233 172.0179 188.1489 15.04827729919888
SL-6 R/B(2)             
1 20666U 90055D   25324.54577882  .00002593  00000+0  20650-3 0  9995
2 20666  62.7835 264.8166 0011079 290.1252  69.8655 15.02926693921784
SL-8 R/B                
1 20775U 90078B   25324.83666154  .00019886  00000+0  61498-3 0  9992
2 20775  82.9053 348.8954 0378823  19.3359 342.1789 14.84648909793121
SL-8 R/B                
1 21088U 91006B   25324.88790981  .00000101  00000+0  86171-4 0  9999
2 21088  82.9423 250.9658 0022218 343.6410  81.5383 13.77486128749094
OKEAN-3                 
1 21397U 91039A   25324.79354873  .00003275  00000+0  23526-3 0  9993
2 21397  82.5164  82.2833 0014168 347.2397  12.8468 15.03903784848662
