CCSDS_OMM_VERS = 2.0
CREATION_DATE  = 
ORIGINATOR     = 

OBJECT_NAME    = ARIANE 40 R/B
OBJECT_ID      = 1990-005H
CENTER_NAME    = EARTH
REF_FRAME      = TEME
TIME_SYSTEM    = UTC
MEAN_ELEMENT_THEORY = SGP/SGP4

EPOCH          = 2025-11-20T03:40:44.869440
MEAN_MOTION    = 14.39773942
ECCENTRICITY   = .00104234
INCLINATION    = 98.3276
RA_OF_ASC_NODE = 22.9665
ARG_OF_PERICENTER = 168.4059
MEAN_ANOMALY   = 191.7371

EPHEMERIS_TYPE = 0
CLASSIFICATION_TYPE = U
NORAD_CAT_ID   = 20443
ELEMENT_SET_NO = 999
REV_AT_EPOCH   = 87704
BSTAR          = .12825339E-3
MEAN_MOTION_DOT = .36E-5
MEAN_MOTION_DDOT = 0

CCSDS_OMM_VERS = 2.0
CREATION_DATE  = 
ORIGINATOR     = 

OBJECT_NAME    = DELTA 2 R/B(1)
OBJECT_ID      = 1990-008B
CENTER_NAME    = EARTH
REF_FRAME      = TEME
TIME_SYSTEM    = UTC
MEAN_ELEMENT_THEORY = SGP/SGP4

EPOCH          = 2025-11-20T19:58:32.693376
MEAN_MOTION    = 15.43186245
ECCENTRICITY   = .01159269
INCLINATION    = 35.6049
RA_OF_ASC_NODE = 161.7699
ARG_OF_PERICENTER = 338.2278
MEAN_ANOMALY   = 21.3553

EPHEMERIS_TYPE = 0
CLASSIFICATION_TYPE = U
NORAD_CAT_ID   = 20453
ELEMENT_SET_NO = 999
REV_AT_EPOCH   = 90924
BSTAR          = .54969973E-3
MEAN_MOTION_DOT = .32385E-3
MEAN_MOTION_DDOT = 0

CCSDS_OMM_VERS = 2.0
CREATION_DATE  = 
ORIGINATOR     = 

OBJECT_NAME    = COSMOS 2058
OBJECT_ID      = 1990-010A
CENTER_NAME    = EARTH
REF_FRAME      = TEME
TIME_SYSTEM    = UTC
MEAN_ELEMENT_THEORY = SGP/SGP4

EPOCH          = 2025-11-20T18:17:18.253248
MEAN_MOTION    = 15.10207619
ECCENTRICITY   = .00101895
INCLINATION    = 82.4629
RA_OF_ASC_NODE = 154.6526
ARG_OF_PERICENTER = 359.1066
MEAN_ANOMALY   = 1.0144

EPHEMERIS_TYPE = 0
CLASSIFICATION_TYPE = U
NORAD_CAT_ID   = 20465
ELEMENT_SET_NO = 999
REV_AT_EPOCH   = 92579
BSTAR          = .19857288E-3
MEAN_MOTION_DOT = .3275E-4
MEAN_MOTION_DDOT = 0

CCSDS_OMM_VERS = 2.0
CREATION_DATE  = 
ORIGINATOR     = 

OBJECT_NAME    = SL-14 R/B
OBJECT_ID      = 1990-010B
CENTER_NAME    = EARTH
REF_FRAME      = TEME
TIME_SYSTEM    = UTC
MEAN_ELEMENT_THEORY = SGP/SGP4

EPOCH          = 2025-11-20T13:17:28.620672
MEAN_MOTION    = 14.83442453
ECCENTRICITY   = .00184793
INCLINATION    = 82.5038
RA_OF_ASC_NODE = 9.8831
ARG_OF_PERICENTER = 301.8794
MEAN_ANOMALY   = 58.0622

EPHEMERIS_TYPE = 0
CLASSIFICATION_TYPE = U
NORAD_CAT_ID   = 20466
ELEMENT_SET_NO = 999
REV_AT_EPOCH   = 91230
BSTAR          = .58020756E-4
MEAN_MOTION_DOT = .501E-5
MEAN_MOTION_DDOT = 0

CCSDS_OMM_VERS = 2.0
CREATION_DATE  = 
ORIGINATOR     = 

OBJECT_NAME    = SL-14 R/B
OBJECT_ID      = 1990-018B
CENTER_NAME    = EARTH
REF_FRAME      = TEME
TIME_SYSTEM    = UTC
MEAN_ELEMENT_THEORY = SGP/SGP4

EPOCH          = 2025-11-20T11:12:04.207104
MEAN_MOTION    = 14.82014635
ECCENTRICITY   = .00179748
INCLINATION    = 82.5198
RA_OF_ASC_NODE = 325.1853
ARG_OF_PERICENTER = 91.5755
MEAN_ANOMALY   = 268.7519

EPHEMERIS_TYPE = 0
CLASSIFICATION_TYPE = U
NORAD_CAT_ID   = 20511
ELEMENT_SET_NO = 999
REV_AT_EPOCH   = 90640
BSTAR          = .58389335E-4
MEAN_MOTION_DOT = .488E-5
MEAN_MOTION_DDOT = 0

CCSDS_OMM_VERS = 2.0
CREATION_DATE  = 
ORIGINATOR     = 

OBJECT_NAME    = HST
OBJECT_ID      = 1990-037B
CENTER_NAME    = EARTH
REF_FRAME      = TEME
TIME_SYSTEM    = UTC
MEAN_ELEMENT_THEORY = SGP/SGP4

EPOCH          = 2025-11-20T13:59:25.932192
MEAN_MOTION    = 15.27620611
ECCENTRICITY   = .00016671
INCLINATION    = 28.4692
RA_OF_ASC_NODE = 63.2448
ARG_OF_PERICENTER = 6.7380
MEAN_ANOMALY   = 353.3238

EPHEMERIS_TYPE = 0
CLASSIFICATION_TYPE = U
NORAD_CAT_ID   = 20580
ELEMENT_SET_NO = 999
REV_AT_EPOCH   = 75660
BSTAR          = .25334432E-3
MEAN_MOTION_DOT = .7263E-4
MEAN_MOTION_DDOT = 0

CCSDS_OMM_VERS = 2.0
CREATION_DATE  = 
ORIGINATOR     = 

OBJECT_NAME    = SL-16 R/B
OBJECT_ID      = 1990-046B
CENTER_NAME    = EARTH
REF_FRAME      = TEME
TIME_SYSTEM    = UTC
MEAN_ELEMENT_THEORY = SGP/SGP4

EPOCH          = 2025-11-20T13:09:43.342848
MEAN_MOTION    = 14.14990148
ECCENTRICITY   = .00123133
INCLINATION    = 70.9955
RA_OF_ASC_NODE = 167.1252
ARG_OF_PERICENTER = 114.3317
MEAN_ANOMALY   = 245.9093

EPHEMERIS_TYPE = 0
CLASSIFICATION_TYPE = U
NORAD_CAT_ID   = 20625
ELEMENT_SET_NO = 999
REV_AT_EPOCH   = 83295
BSTAR          = .47990244E-4
MEAN_MOTION_DOT = .45E-6
MEAN_MOTION_DDOT = 0

CCSDS_OMM_VERS = 2.0
CREATION_DATE  = 
ORIGINATOR     = 

OBJECT_NAME    = COSMOS 2084
OBJECT_ID      = 1990-055A
CENTER_NAME    = EARTH
REF_FRAME      = TEME
TIME_SYSTEM    = UTC
MEAN_ELEMENT_THEORY = SGP/SGP4

EPOCH          = 2025-11-20T12:10:59.538720
MEAN_MOTION    = 15.04827729
ECCENTRICITY   = .00352331
INCLINATION    = 62.7912
RA_OF_ASC_NODE = 347.7351
ARG_OF_PERICENTER = 172.0179
MEAN_ANOMALY   = 188.1489

EPHEMERIS_TYPE = 0
CLASSIFICATION_TYPE = U
NORAD_CAT_ID   = 20663
ELEMENT_SET_NO = 999
REV_AT_EPOCH   = 91988
BSTAR          = .18720206E-3
MEAN_MOTION_DOT = .2486E-4
MEAN_MOTION_DDOT = 0

CCSDS_OMM_VERS = 2.0
CREATION_DATE  = 
ORIGINATOR     = 

OBJECT_NAME    = SL-6 R/B(2)
OBJECT_ID      = 1990-055D
CENTER_NAME    = EARTH
REF_FRAME      = TEME
TIME_SYSTEM    = UTC
MEAN_ELEMENT_THEORY = SGP/SGP4

EPOCH          = 2025-11-20T13:05:55.290048
MEAN_MOTION    = 15.02926693
ECCENTRICITY   = .00110794
INCLINATION    = 62.7835
RA_OF_ASC_NODE = 264.8166
ARG_OF_PERICENTER = 290.1252
MEAN_ANOMALY   = 69.8655

EPHEMERIS_TYPE = 0
CLASSIFICATION_TYPE = U
NORAD_CAT_ID   = 20666
ELEMENT_SET_NO = 999
REV_AT_EPOCH   = 92178
BSTAR          = .20650389E-3
MEAN_MOTION_DOT = .2593E-4
MEAN_MOTION_DDOT = 0

CCSDS_OMM_VERS = 2.0
CREATION_DATE  = 
ORIGINATOR     = 

OBJECT_NAME    = SL-8 R/B
OBJECT_ID      = 1990-078B
CENTER_NAME    = EARTH
REF_FRAME      = TEME
TIME_SYSTEM    = UTC
MEAN_ELEMENT_THEORY = SGP/SGP4

EPOCH          = 2025-11-20T20:04:47.557056
MEAN_MOTION    = 14.84648909
ECCENTRICITY   = .03788234
INCLINATION    = 82.9053
RA_OF_ASC_NODE = 348.8954
ARG_OF_PERICENTER = 19.3359
MEAN_ANOMALY   = 342.1789

EPHEMERIS_TYPE = 0
CLASSIFICATION_TYPE = U
NORAD_CAT_ID   = 20775
ELEMENT_SET_NO = 999
REV_AT_EPOCH   = 79312
BSTAR          = .61498241E-3
MEAN_MOTION_DOT = .19886E-3
MEAN_MOTION_DDOT = 0

CCSDS_OMM_VERS = 2.0
CREATION_DATE  = 
ORIGINATOR     = 

OBJECT_NAME    = SL-8 R/B
OBJECT_ID      = 1991-006B
CENTER_NAME    = EARTH
REF_FRAME      = TEME
TIME_SYSTEM    = UTC
MEAN_ELEMENT_THEORY = SGP/SGP4

EPOCH          = 2025-11-20T21:18:35.407584
MEAN_MOTION    = 13.77486128
ECCENTRICITY   = .00222181
INCLINATION    = 82.9423
RA_OF_ASC_NODE = 250.9658
ARG_OF_PERICENTER = 343.6410
MEAN_ANOMALY   = 81.5383

EPHEMERIS_TYPE = 0
CLASSIFICATION_TYPE = U
NORAD_CAT_ID   = 21088
ELEMENT_SET_NO = 999
REV_AT_EPOCH   = 74909
BSTAR          = .86171082E-4
MEAN_MOTION_DOT = .101E-5
MEAN_MOTION_DDOT = 0

CCSDS_OMM_VERS = 2.0
CREATION_DATE  = 
ORIGINATOR     = 

OBJECT_NAME    = OKEAN-3
OBJECT_ID      = 1991-039A
CENTER_NAME    = EARTH
REF_FRAME      = TEME
TIME_SYSTEM    = UTC
MEAN_ELEMENT_THEORY = SGP/SGP4

EPOCH          = 2025-11-20T19:02:42.610272
MEAN_MOTION    = 15.03903784
ECCENTRICITY   = .0014168
INCLINATION    = 82.5164
RA_OF_ASC_NODE = 82.2833
ARG_OF_PERICENTER = 347.2397
MEAN_ANOMALY   = 12.8468

EPHEMERIS_TYPE = 0
CLASSIFICATION_TYPE = U
NORAD_CAT_ID   = 21397
ELEMENT_SET_NO = 999
REV_AT_EPOCH   = 84866
BSTAR          = .2352609E-3
MEAN_MOTION_DOT = .3275E-4
MEAN_MOTION_DDOT = 0

